OBJECT_NAME,OBJECT_ID,EPOCH,MEAN_MOTION,ECCENTRICITY,INCLINATION,RA_OF_ASC_NODE,ARG_OF_PERICENTER,MEAN_ANOMALY,EPHEMERIS_TYPE,CLASSIFICATION_TYPE,NORAD_CAT_ID,ELEMENT_SET_NO,REV_AT_EPOCH,BSTAR,MEAN_MOTION_DOT,MEAN_MOTION_DDOT
KUIPER-00616,2026-151N,2026-07-15T04:17:20.897376,15.38390469,.0003225,51.8774,180.3784,121.3983,238.7320,0,U,69775,999,201,.33812E-3,.1263E-3,0
KUIPER-00617,2026-151P,2026-07-14T23:42:39.198816,15.37776227,.0004162,51.8785,181.3453,133.9652,226.1679,0,U,69776,999,198,.302E-3,.11009E-3,0
KUIPER-00619,2026-151Q,2026-07-15T02:40:52.262400,15.38540877,.0001897,51.8789,180.6750,70.3470,289.7722,0,U,69777,999,200,.42528E-3,.16074E-3,0
KUIPER-00621,2026-151R,2026-07-15T04:17:09.165984,15.38329331,.0002259,51.8784,180.3752,117.0376,243.0842,0,U,69778,999,201,.38317E-3,.14339E-3,0
KUIPER-00622,2026-151S,2026-07-15T02:59:18.292992,15.36984918,.0006835,51.8733,180.7623,147.4236,212.7173,0,U,69779,999,200,.33081E-3,.11789E-3,0
KUIPER-00623,2026-151T,2026-07-15T02:53:32.400096,15.37427376,.0005138,51.8774,180.7335,135.5060,224.6340,0,U,69780,999,200,.32233E-3,.11643E-3,0
KUIPER-00626,2026-151U,2026-07-15T03:12:39.940704,15.35540165,.0007683,51.8706,180.8245,160.8597,199.2679,0,U,69781,999,200,.11811E-2,.41302E-3,0
KUIPER-00627,2026-151V,2026-07-15T03:15:09.360000,15.35431940,.0010955,51.8691,180.8294,165.8540,194.2755,0,U,69782,999,200,.37932E-3,.12917E-3,0
KUIPER-00629,2026-151W,2026-07-15T02:59:59.390016,15.36960404,.0006704,51.8731,180.7656,146.5780,213.5631,0,U,69783,999,200,.24633E-3,.8667E-4,0
KUIPER-00631,2026-151X,2026-07-15T03:02:44.694816,15.36734382,.0007763,51.8704,180.7768,154.2136,205.9239,0,U,69784,999,200,.27482E-3,.9646E-4,0
KUIPER-00634,2026-151Y,2026-07-15T04:24:07.434432,15.37737258,.0003694,51.8764,180.4073,136.2486,223.8794,0,U,69785,999,201,.32194E-3,.11748E-3,0
KUIPER-00639,2026-151Z,2026-07-15T03:09:31.586976,15.35807349,.0009406,51.8682,180.8045,161.7192,198.4134,0,U,69786,999,200,-.32893E-3,-.12024E-3,0
KUIPER-00641,2026-151AA,2026-07-15T03:16:18.265728,15.35112152,.0009594,51.8674,180.8330,163.4487,196.6814,0,U,69787,999,200,.43448E-3,.14696E-3,0
KUIPER-00644,2026-151AB,2026-07-14T23:56:50.880768,15.39299515,.0024482,51.8743,181.4101,194.9386,165.0881,0,U,69788,999,198,.43501E-1,.1942196E-1,0
KUIPER-00646,2026-151AC,2026-07-15T03:08:54.284640,15.35912594,.0009546,51.8695,180.8028,164.4300,195.6981,0,U,69789,999,200,-.14689E-4,-.912E-5,0
KUIPER-00647,2026-151AD,2026-07-15T03:13:52.292064,15.35483388,.0011009,51.8652,180.8232,164.3672,195.7656,0,U,69790,999,200,-.97698E-3,-.34508E-3,0
KUIPER-00662,2026-151AE,2026-07-14T11:27:29.410272,15.36321024,.00082067,51.8719,183.9237,150.8768,209.2677,0,U,69791,999,190,-.36493324E-2,-.129583E-2,0
LINK,2026-152A,2026-07-14T13:09:23.434560,15.66971156,.0024505,20.5927,332.3809,346.3344,13.6438,0,U,69792,999,175,.10950058E-2,.126451E-2,0
2026-152B,2026-152B,2026-07-13T17:27:10.634688,15.64685266,.00224264,20.5989,338.8282,333.1353,26.7932,0,U,69793,999,162,.33008188E-3,.34944E-3,0
ISS OBJECT YJ,1998-067YJ,2026-07-14T22:06:39.195072,15.50016482,.0007754,51.6309,162.7652,310.2299,49.8011,0,U,69794,999,195,.34820905E-3,.19495E-3,0
ISS OBJECT YK,1998-067YK,2026-07-14T22:01:24.782016,15.50686922,.00067437,51.6307,162.7411,318.9843,41.0638,0,U,69795,999,195,.58943548E-3,.34183E-3,0
ISS OBJECT YL,1998-067YL,2026-07-14T22:02:43.515744,15.50455884,.00087941,51.6307,162.7470,311.6154,48.4081,0,U,69796,999,194,.47292462E-3,.271E-3,0
ISS OBJECT YM,1998-067YM,2026-07-14T22:02:22.472160,15.50497173,.00095729,51.6309,162.7451,302.7660,57.2406,0,U,69797,999,193,.48210081E-3,.27685E-3,0
ISS OBJECT YN,1998-067YN,2026-07-14T22:03:17.934048,15.50295985,.00092268,51.6309,162.7495,314.2657,45.7574,0,U,69798,999,195,.33787265E-3,.19101E-3,0
ISS OBJECT YP,1998-067YP,2026-07-14T22:02:15.976608,15.50492869,.0009742,51.6308,162.7447,302.8936,57.1115,0,U,69799,999,194,.46477612E-3,.26668E-3,0
QIANFAN-201,2026-153A,2026-07-15T02:44:07.835712,14.53448476,.0087059,89.0162,358.9868,87.2328,273.8841,0,U,69800,999,156,.18252E-4,.99E-6,0
QIANFAN-202,2026-153B,2026-07-14T21:38:47.923584,14.22084805,.0006377,88.9965,359.0753,171.8728,188.2568,0,U,69801,999,150,.17118E-4,.52E-6,0
QIANFAN-203,2026-153C,2026-07-14T23:18:20.030688,14.22901054,.0010302,88.9955,359.0604,197.5852,162.4984,0,U,69802,999,151,.16795E-4,.52E-6,0
QIANFAN-204,2026-153D,2026-07-15T04:22:08.122944,14.22390494,.0007217,88.9922,359.0518,183.6239,176.4902,0,U,69803,999,154,.47887E-4,.121E-5,0
QIANFAN-205,2026-153E,2026-07-15T04:23:49.542720,14.22264186,.0007429,88.9921,359.0518,182.0005,178.1158,0,U,69804,999,154,.47173E-4,.119E-5,0
